NORAD_CAT_ID,OBJECT_NAME,OBJECT_TYPE,EPOCH,MEAN_MOTION,ECCENTRICITY,INCLINATION,RA_OF_ASC_NODE,ARG_OF_PERICENTER,MEAN_ANOMALY,BSTAR,MEAN_MOTION_DOT,MEAN_MOTION_DDOT,TLE_LINE0,TLE_LINE1,TLE_LINE2,SEMIMAJOR_AXIS,PERIOD,APOGEE,PERIGEE,DECAYED
53623.0,STARLINK-4573,PAYLOAD,2023-09-19 14:41:01,15.08872827,0.0001388,53.218,323.581,96.0001,264.115,0.0013913,0.00021944,0.0,0 STARLINK-4573,1 53623U 22104AM  23262.61181950  .00021944  00000-0  13913-2 0  9993,2 53623  53.2180 323.5810 0001388  96.0001 264.1150 15.08872827 58884,6917.78,95.435,540.605,538.685,0.0
53623.0,STARLINK-4573,PAYLOAD,2023-09-20 11:21:03,15.08820261,0.000132,53.2164,319.7176,109.9757,250.1377,0.00098775,0.00015459,0.0,0 STARLINK-4573,1 53623U 22104AM  23263.47295710  .00015459  00000-0  98775-3 0  9992,2 53623  53.2164 319.7176 0001320 109.9757 250.1377 15.08820261 59013,6917.941,95.439,540.719,538.893,0.0
53623.0,STARLINK-4573,PAYLOAD,2023-09-20 16:07:13,15.08824875,0.0001363,53.2164,318.8247,109.9618,250.1521,0.00097625,0.00015277,0.0,0 STARLINK-4573,1 53623U 22104AM  23263.67167921  .00015277  00000-0  97625-3 0  9997,2 53623  53.2164 318.8247 0001363 109.9618 250.1521 15.08824875 59729,6917.927,95.439,540.735,538.849,0.0
53623.0,STARLINK-4573,PAYLOAD,2023-09-21 11:11:51,15.08844212,0.0001408,53.2166,315.2554,100.3761,259.739,0.00087317,0.00013637,0.0,0 STARLINK-4573,1 53623U 22104AM  23264.46656294  .00013637  00000-0  87317-3 0  9996,2 53623  53.2166 315.2554 0001408 100.3761 259.7390 15.08844212 59846,6917.868,95.437,540.707,538.758,0.0
53623.0,STARLINK-4573,PAYLOAD,2023-09-21 15:58:00,15.08849567,0.000141,53.2164,314.3628,102.9788,257.1362,0.00085909,0.00013414,0.0,0 STARLINK-4573,1 53623U 22104AM  23264.66528164  .00013414  00000-0  85909-3 0  9990,2 53623  53.2164 314.3628 0001410 102.9788 257.1362 15.08849567 59193,6917.851,95.437,540.692,538.741,0.0
53623.0,STARLINK-4573,PAYLOAD,2023-09-21 20:44:09,15.08842396,0.0001469,53.2174,313.4668,120.6597,239.4541,0.00060409,9.34e-05,0.0,0 STARLINK-4573,1 53623U 22104AM  23264.86400278  .00009340  00000-0  60409-3 0  9998,2 53623  53.2174 313.4668 0001469 120.6597 239.4541 15.08842396 59901,6917.873,95.437,540.754,538.722,0.0
53623.0,STARLINK-4573,PAYLOAD,2023-09-22 09:27:14,15.08849735,0.0001379,53.2162,311.093,93.9261,266.1889,0.00061369,9.495e-05,0.0,0 STARLINK-4573,1 53623U 22104AM  23265.39392267  .00009495  00000-0  61369-3 0  9992,2 53623  53.2162 311.0930 0001379  93.9261 266.1889 15.08849735 59988,6917.851,95.437,540.67,538.762,0.0
53623.0,STARLINK-4573,PAYLOAD,2023-09-22 20:34:56,15.08853251,0.00014,53.2159,309.0121,89.0834,271.0319,0.00073334,0.00011407,0.0,0 STARLINK-4573,1 53623U 22104AM  23265.85760160  .00011407  00000-0  73334-3 0  9995,2 53623  53.2159 309.0121 0001400  89.0834 271.0319 15.08853251 60051,6917.84,95.437,540.673,538.736,0.0
53623.0,STARLINK-4573,PAYLOAD,2023-09-23 09:18:01,15.08850925,0.0001546,53.2169,306.6335,88.3989,271.718,0.00030376,4.551e-05,0.0,0 STARLINK-4573,1 53623U 22104AM  23266.38752026  .00004551  00000-0  30376-3 0  9997,2 53623  53.2169 306.6335 0001546  88.3989 271.7180 15.08850925 59456,6917.847,95.437,540.781,538.642,0.0
53623.0,STARLINK-4573,PAYLOAD,2023-09-24 09:08:48,15.08845239,0.0001568,53.2174,302.1732,93.0845,267.0327,8.3327e-05,1.039e-05,0.0,0 STARLINK-4573,1 53623U 22104AM  23267.38111939  .00001039  00000-0  83327-4 0  9993,2 53623  53.2174 302.1732 0001568  93.0845 267.0327 15.08845239 59602,6917.864,95.437,540.814,538.645,0.0
53623.0,STARLINK-4573,PAYLOAD,2023-09-24 12:19:34,15.08847057,0.000155,53.2172,301.5774,96.7522,263.3647,0.00010007,1.305e-05,0.0,0 STARLINK-4573,1 53623U 22104AM  23267.51359765  .00001305  00000-0  10007-3 0  9999,2 53623  53.2172 301.5774 0001550  96.7522 263.3647 15.08847057 60305,6917.859,95.437,540.796,538.652,0.0
53623.0,STARLINK-4573,PAYLOAD,2023-09-25 12:10:21,15.08842808,0.000163,53.2182,297.1135,100.9548,259.1628,5.2096e-05,5.41e-06,0.0,0 STARLINK-4573,1 53623U 22104AM  23268.50719863  .00000541  00000-0  52096-4 0  9994,2 53623  53.2182 297.1135 0001630 100.9548 259.1628 15.08842808 60459,6917.872,95.437,540.864,538.609,0.0
53623.0,STARLINK-4573,PAYLOAD,2023-09-25 18:31:54,15.0883739,9.49e-05,53.2181,295.931,134.7908,225.3162,9.057e-06,-1.44e-06,0.0,0 STARLINK-4573,1 53623U 22104AM  23268.77215990 -.00000144  00000-0  90570-5 0  9995,2 53623  53.2181 295.9310 0000949 134.7908 225.3162 15.08837390 59812,6917.888,95.438,540.41,539.097,0.0
53623.0,STARLINK-4573,PAYLOAD,2023-09-26 08:50:22,15.08843298,0.0001586,53.2184,293.2515,84.612,275.5053,6.6777e-05,7.75e-06,0.0,0 STARLINK-4573,1 53623U 22104AM  23269.36831855  .00000775  00000-0  66777-4 0  9995,2 53623  53.2184 293.2515 0001586  84.6120 275.5053 15.08843298 59900,6917.87,95.437,540.832,538.638,0.0
53623.0,STARLINK-4573,PAYLOAD,2023-09-27 08:41:10,15.08837472,0.0001675,53.2182,288.7944,105.5965,254.5212,1.1144e-05,-1.11e-06,0.0,0 STARLINK-4573,1 53623U 22104AM  23270.36192593 -.00000111  00000-0  11144-4 0  9999,2 53623  53.2182 288.7944 0001675 105.5965 254.5212 15.08837472 60051,6917.888,95.438,540.912,538.594,0.0
53623.0,STARLINK-4573,PAYLOAD,2023-09-27 10:16:33,15.08840904,0.0001473,53.2173,288.4955,96.3793,263.7367,-1.1707e-05,-4.74e-06,0.0,0 STARLINK-4573,1 53623U 22104AM  23270.42816448 -.00000474  00000-0 -11707-4 0  9996,2 53623  53.2173 288.4955 0001473  96.3793 263.7367 15.08840904 60745,6917.878,95.437,540.762,538.724,0.0
53623.0,STARLINK-4573,PAYLOAD,2023-09-28 08:31:58,15.08829003,0.0001626,53.2174,284.3317,100.7334,259.3841,3.8711e-05,3.28e-06,0.0,0 STARLINK-4573,1 53623U 22104AM  23271.35553469  .00000328  00000-0  38711-4 0  9990,2 53623  53.2174 284.3317 0001626 100.7334 259.3841 15.08829003 60200,6917.914,95.438,540.904,538.654,0.0
53623.0,STARLINK-4573,PAYLOAD,2023-09-29 00:25:49,15.08839616,0.0001465,53.2171,281.3572,96.8808,263.2351,8.146e-05,1.009e-05,0.0,0 STARLINK-4573,1 53623U 22104AM  23272.01792932  .00001009  00000-0  81460-4 0  9990,2 53623  53.2171 281.3572 0001465  96.8808 263.2351 15.08839616 60301,6917.882,95.438,540.76,538.733,0.0
53623.0,STARLINK-4573,PAYLOAD,2023-09-29 09:58:07,15.08848315,0.000147,53.2165,279.5727,93.9691,266.147,0.00014983,2.098e-05,0.0,0 STARLINK-4573,1 53623U 22104AM  23272.41536204  .00002098  00000-0  14983-3 0  9996,2 53623  53.2165 279.5727 0001470  93.9691 266.1470 15.08848315 60365,6917.855,95.437,540.737,538.703,0.0
53623.0,STARLINK-4573,PAYLOAD,2023-09-30 05:02:45,15.08842014,0.0001471,53.2163,276.003,89.5705,270.5455,0.00012438,1.692e-05,0.0,0 STARLINK-4573,1 53623U 22104AM  23273.21024657  .00001692  00000-0  12438-3 0  9991,2 53623  53.2163 276.0030 0001471  89.5705 270.5455 15.08842014 61161,6917.874,95.437,540.757,538.722,0.0
53623.0,STARLINK-4573,PAYLOAD,2023-09-30 09:48:54,15.08846944,0.0001474,53.2163,275.1105,91.9699,268.1462,0.00015653,2.205e-05,0.0,0 STARLINK-4573,1 53623U 22104AM  23273.40896236  .00002205  00000-0  15653-3 0  9995,2 53623  53.2163 275.1105 0001474  91.9699 268.1462 15.08846944 60511,6917.859,95.437,540.744,538.704,0.0
53623.0,STARLINK-4573,PAYLOAD,2023-10-01 09:39:41,15.08844146,0.0001477,53.2159,270.6503,91.2558,268.8603,2.7786e-05,1.54e-06,0.0,0 STARLINK-4573,1 53623U 22104AM  23274.40256787  .00000154  00000-0  27786-4 0  9999,2 53623  53.2159 270.6503 0001477  91.2558 268.8603 15.08844146 60660,6917.868,95.437,540.754,538.711,0.0
53623.0,STARLINK-4573,PAYLOAD,2023-10-02 11:05:51,15.08848938,0.0001488,53.2173,265.892,91.5685,268.5478,5.4787e-05,5.84e-06,0.0,0 STARLINK-4573,1 53623U 22104AM  23275.46240395  .00000584  00000-0  54787-4 0  9992,2 53623  53.2173 265.8920 0001488  91.5685 268.5478 15.08848938 60829,6917.853,95.437,540.747,538.689,0.0
53623.0,STARLINK-4573,PAYLOAD,2023-10-03 04:35:06,15.08842219,0.0001499,53.2165,262.6212,97.756,262.3602,9.3825e-05,1.206e-05,0.0,0 STARLINK-4573,1 53623U 22104AM  23276.19104935  .00001206  00000-0  93825-4 0  9990,2 53623  53.2165 262.6212 0001499  97.7560 262.3602 15.08842219 60930,6917.874,95.437,540.776,538.702,0.0
53623.0,STARLINK-4573,PAYLOAD,2023-10-03 10:56:38,15.0885458,0.0001472,53.2162,261.4327,95.0212,265.0948,0.00027454,4.086e-05,0.0,0 STARLINK-4573,1 53623U 22104AM  23276.45600290  .00004086  00000-0  27454-3 0  9997,2 53623  53.2162 261.4327 0001472  95.0212 265.0948 15.08854580 60978,6917.836,95.437,540.719,538.683,0.0
53623.0,STARLINK-4573,PAYLOAD,2023-10-03 15:42:49,15.08830596,0.0002661,53.2165,260.5383,81.0215,279.1078,-3.9553e-05,-9.18e-06,0.0,0 STARLINK-4573,1 53623U 22104AM  23276.65473940 -.00000918  00000-0 -39553-4 0  9995,2 53623  53.2165 260.5383 0002661  81.0215 279.1078 15.08830596 61008,6917.909,95.438,541.615,537.933,0.0
53623.0,STARLINK-4573,PAYLOAD,2023-10-03 22:04:21,15.08831461,0.0001721,53.2167,259.3508,89.6426,270.4763,4.6452e-06,-2.14e-06,0.0,0 STARLINK-4573,1 53623U 22104AM  23276.91969694 -.00000214  00000-0  46452-5 0  9995,2 53623  53.2167 259.3508 0001721  89.6426 270.4763 15.08831461 61725,6917.906,95.438,540.962,538.581,0.0
53623.0,STARLINK-4573,PAYLOAD,2023-10-04 09:12:03,15.08844108,0.000145,53.2159,257.2706,97.861,262.2547,0.00015389,2.162e-05,0.0,0 STARLINK-4573,1 53623U 22104AM  23277.38337168  .00002162  00000-0  15389-3 0  9998,2 53623  53.2159 257.2706 0001450  97.8610 262.2547 15.08844108 61112,6917.868,95.437,540.736,538.73,0.0
53623.0,STARLINK-4573,PAYLOAD,2023-10-04 15:33:36,15.08836,0.0001796,53.2166,256.0797,93.6882,266.4316,-1.2696e-05,-4.9e-06,0.0,0 STARLINK-4573,1 53623U 22104AM  23277.64833591 -.00000490  00000-0 -12696-4 0  9991,2 53623  53.2166 256.0797 0001796  93.6882 266.4316 15.08836000 61151,6917.893,95.438,541.0,538.515,0.0
53623.0,STARLINK-4573,PAYLOAD,2023-10-05 09:02:50,15.08857091,0.0001453,53.2156,252.8083,103.9743,256.1411,0.00054443,8.391e-05,0.0,0 STARLINK-4573,1 53623U 22104AM  23278.37696838  .00008391  00000-0  54443-3 0  9994,2 53623  53.2156 252.8083 0001453 103.9743 256.1411 15.08857091 61260,6917.828,95.436,540.698,538.688,0.0
